{"type": "FeatureCollection", "features": [ {"type": "Feature", "properties": {"norad_id": 43010, "name": "FENGYUN 3D", "group": "weather", "lat": 20.23752326146573, "lon": 141.71894968532882, "alt_km": 825.527220372609, "timestamp": "2025-12-17T23:38:06.507407+00:00", "meta": {"OBJECT_NAME": "FENGYUN 3D", "OBJECT_ID": "2017-072A", "EPOCH": "2025-12-17T14:25:46.188192", "MEAN_MOTION": 14.19686227, "ECCENTRICITY": 0.00011713, "INCLINATION": 98.9888, "RA_OF_ASC_NODE": 317.9843, "ARG_OF_PERICENTER": 167.1115, "MEAN_ANOMALY": 193.0091, "EPHEMERIS_TYPE": 0, "CLASSIFICATION_TYPE": "U", "NORAD_CAT_ID": 43010, "ELEMENT_SET_NO": 999, "REV_AT_EPOCH": 41922, "BSTAR": 0.00015056881, "MEAN_MOTION_DOT": 2.72e-06, "MEAN_MOTION_DDOT": 0}, "tle": {"line1": "1 43010U 17072A   25351.60122903  .00000272  00000+0  15057-3 0  9995", "line2": "2 43010  98.9888 317.9843 0001171 167.1115 193.0091 14.19686227419224"}}, "geometry": {"type": "Point", "coordinates": [141.71894968532882, 20.23752326146573]}}, {"type": "Feature", "properties": {"norad_id": 43013, "name": "NOAA 20 (JPSS-1)", "group": "weather", "lat": -50.626964558929856, "lon": -60.94529967857909, "alt_km": 834.828893303079, "timestamp": "2025-12-17T23:38:06.507418+00:00", "meta": {"OBJECT_NAME": "NOAA 20 (JPSS-1)", "OBJECT_ID": "2017-073A", "EPOCH": "2025-12-17T13:43:38.016192", "MEAN_MOTION": 14.19527034, "ECCENTRICITY": 0.00021448, "INCLINATION": 98.7604, "RA_OF_ASC_NODE": 287.8159, "ARG_OF_PERICENTER": 80.2569, "MEAN_ANOMALY": 279.8849, "EPHEMERIS_TYPE": 0, "CLASSIFICATION_TYPE": "U", "NORAD_CAT_ID": 43013, "ELEMENT_SET_NO": 999, "REV_AT_EPOCH": 41870, "BSTAR": 5.7720213e-05, "MEAN_MOTION_DOT": 7.8e-07, "MEAN_MOTION_DDOT": 0}, "tle": {"line1": "1 43013U 17073A   25351.57196778  .00000078  00000+0  57720-4 0  9994", "line2": "2 43013  98.7604 287.8159 0002144  80.2569 279.8849 14.19527034418701"}}, "geometry": {"type": "Point", "coordinates": [-60.94529967857909, -50.626964558929856]}}, {"type": "Feature", "properties": {"norad_id": 43226, "name": "GOES 17", "group": "weather", "lat": -0.46379425287966863, "lon": -8.095448636225543, "alt_km": 35782.31437598232, "timestamp": "2025-12-17T23:38:06.507431+00:00", "meta": {"OBJECT_NAME": "GOES 17", "OBJECT_ID": "2018-022A", "EPOCH": "2025-12-17T12:54:02.489184", "MEAN_MOTION": 1.00271188, "ECCENTRICITY": 0.00030915, "INCLINATION": 0.4704, "RA_OF_ASC_NODE": 89.1525, "ARG_OF_PERICENTER": 190.7991, "MEAN_ANOMALY": 270.4737, "EPHEMERIS_TYPE": 0, "CLASSIFICATION_TYPE": "U", "NORAD_CAT_ID": 43226, "ELEMENT_SET_NO": 999, "REV_AT_EPOCH": 2860, "BSTAR": 0, "MEAN_MOTION_DOT": -1.58e-06, "MEAN_MOTION_DDOT": 0}, "tle": {"line1": "1 43226U 18022A   25351.53752881 -.00000158  00000+0  00000+0 0  9998", "line2": "2 43226   0.4704  89.1525 0003091 190.7991 270.4737  1.00271188 28607"}}, "geometry": {"type": "Point", "coordinates": [-8.095448636225543, -0.46379425287966863]}}, {"type": "Feature", "properties": {"norad_id": 43491, "name": "FENGYUN 2H", "group": "weather", "lat": 2.5244344419512963, "lon": 160.68919644458177, "alt_km": 35785.32693361747, "timestamp": "2025-12-17T23:38:06.507451+00:00", "meta": {"OBJECT_NAME": "FENGYUN 2H", "OBJECT_ID": "2018-050A", "EPOCH": "2025-12-17T15:24:55.539936", "MEAN_MOTION": 1.00271338, "ECCENTRICITY": 0.0002456, "INCLINATION": 2.5632, "RA_OF_ASC_NODE": 81.2773, "ARG_OF_PERICENTER": 166.1771, "MEAN_ANOMALY": 149.648, "EPHEMERIS_TYPE": 0, "CLASSIFICATION_TYPE": "U", "NORAD_CAT_ID": 43491, "ELEMENT_SET_NO": 999, "REV_AT_EPOCH": 2761, "BSTAR": 0, "MEAN_MOTION_DOT": -1.07e-06, "MEAN_MOTION_DDOT": 0}, "tle": {"line1": "1 43491U 18050A   25351.64230949 -.00000107  00000+0  00000+0 0  9995", "line2": "2 43491   2.5632  81.2773 0002456 166.1771 149.6480  1.00271338 27618"}}, "geometry": {"type": "Point", "coordinates": [160.68919644458177, 2.5244344419512963]}}, {"type": "Feature", "properties": {"norad_id": 43689, "name": "METOP-C", "group": "weather", "lat": 52.48768248089822, "lon": -118.83104535711341, "alt_km": 815.4826340772725, "timestamp": "2025-12-17T23:38:06.507463+00:00", "meta": {"OBJECT_NAME": "METOP-C", "OBJECT_ID": "2018-087A", "EPOCH": "2025-12-17T14:35:42.705024", "MEAN_MOTION": 14.21486248, "ECCENTRICITY": 0.00010135, "INCLINATION": 98.6924, "RA_OF_ASC_NODE": 49.3031, "ARG_OF_PERICENTER": 30.4871, "MEAN_ANOMALY": 329.6365, "EPHEMERIS_TYPE": 0, "CLASSIFICATION_TYPE": "U", "NORAD_CAT_ID": 43689, "ELEMENT_SET_NO": 999, "REV_AT_EPOCH": 36903, "BSTAR": 7.5408833e-05, "MEAN_MOTION_DOT": 1.21e-06, "MEAN_MOTION_DDOT": 0}, "tle": {"line1": "1 43689U 18087A   25351.60813316  .00000121  00000+0  75409-4 0  9990", "line2": "2 43689  98.6924  49.3031 0001013  30.4871 329.6365 14.21486248369033"}}, "geometry": {"type": "Point", "coordinates": [-118.83104535711341, 52.48768248089822]}}, {"type": "Feature", "properties": {"norad_id": 43823, "name": "GEO-KOMPSAT-2A", "group": "weather", "lat": 0.021258254508885403, "lon": -150.35003206089974, "alt_km": 35786.92516461456, "timestamp": "2025-12-17T23:38:06.507481+00:00", "meta": {"OBJECT_NAME": "GEO-KOMPSAT-2A", "OBJECT_ID": "2018-100A", "EPOCH": "2025-12-16T07:07:06.206304", "MEAN_MOTION": 1.00271835, "ECCENTRICITY": 4.993e-05, "INCLINATION": 0.0508, "RA_OF_ASC_NODE": 132.3973, "ARG_OF_PERICENTER": 330.4458, "MEAN_ANOMALY": 217.3998, "EPHEMERIS_TYPE": 0, "CLASSIFICATION_TYPE": "U", "NORAD_CAT_ID": 43823, "ELEMENT_SET_NO": 999, "REV_AT_EPOCH": 2579, "BSTAR": 0, "MEAN_MOTION_DOT": -3.2e-06, "MEAN_MOTION_DDOT": 0}, "tle": {"line1": "1 43823U 18100A   25350.29659961 -.00000320  00000+0  00000+0 0  9996", "line2": "2 43823   0.0508 132.3973 0000499 330.4458 217.3998  1.00271835 25791"}}, "geometry": {"type": "Point", "coordinates": [-150.35003206089974, 0.021258254508885403]}}, {"type": "Feature", "properties": {"norad_id": 44387, "name": "METEOR-M2 2", "group": "weather", "lat": -71.49736906869553, "lon": 123.86863104642174, "alt_km": 818.6154660064567, "timestamp": "2025-12-17T23:38:06.507495+00:00", "meta": {"OBJECT_NAME": "METEOR-M2 2", "OBJECT_ID": "2019-038A", "EPOCH": "2025-12-17T15:42:13.621248", "MEAN_MOTION": 14.24293287, "ECCENTRICITY": 0.00014437, "INCLINATION": 98.8968, "RA_OF_ASC_NODE": 331.4434, "ARG_OF_PERICENTER": 136.8036, "MEAN_ANOMALY": 223.3256, "EPHEMERIS_TYPE": 0, "CLASSIFICATION_TYPE": "U", "NORAD_CAT_ID": 44387, "ELEMENT_SET_NO": 999, "REV_AT_EPOCH": 33545, "BSTAR": 4.6509628e-05, "MEAN_MOTION_DOT": 6.2e-07, "MEAN_MOTION_DDOT": 0}, "tle": {"line1": "1 44387U 19038A   25351.65432432  .00000062  00000+0  46510-4 0  9999", "line2": "2 44387  98.8968 331.4434 0001443 136.8036 223.3256 14.24293287335452"}}, "geometry": {"type": "Point", "coordinates": [123.86863104642174, -71.49736906869553]}}, {"type": "Feature", "properties": {"norad_id": 47719, "name": "ARKTIKA-M 1", "group": "weather", "lat": 33.32125519004535, "lon": -116.07145080015253, "alt_km": 16245.495322923813, "timestamp": "2025-12-17T23:38:06.507509+00:00", "meta": {"OBJECT_NAME": "ARKTIKA-M 1", "OBJECT_ID": "2021-016A", "EPOCH": "2025-12-16T01:33:46.454400", "MEAN_MOTION": 2.00630649, "ECCENTRICITY": 0.72056757, "INCLINATION": 63.179, "RA_OF_ASC_NODE": 83.5626, "ARG_OF_PERICENTER": 269.1378, "MEAN_ANOMALY": 15.5886, "EPHEMERIS_TYPE": 0, "CLASSIFICATION_TYPE": "U", "NORAD_CAT_ID": 47719, "ELEMENT_SET_NO": 999, "REV_AT_EPOCH": 3511, "BSTAR": 0, "MEAN_MOTION_DOT": -1.08e-06, "MEAN_MOTION_DDOT": 0}, "tle": {"line1": "1 47719U 21016A   25350.06512100 -.00000108  00000+0  00000+0 0  9996", "line2": "2 47719  63.1790  83.5626 7205675 269.1378  15.5886  2.00630649 35117"}}, "geometry": {"type": "Point", "coordinates": [-116.07145080015253, 33.32125519004535]}}, {"type": "Feature", "properties": {"norad_id": 49008, "name": "FENGYUN 3E", "group": "weather", "lat": 49.46480723571576, "lon": -177.18361722222937, "alt_km": 821.3028653133961, "timestamp": "2025-12-17T23:38:06.507521+00:00", "meta": {"OBJECT_NAME": "FENGYUN 3E", "OBJECT_ID": "2021-062A", "EPOCH": "2025-12-17T14:34:13.041696", "MEAN_MOTION": 14.19880947, "ECCENTRICITY": 6.338e-05, "INCLINATION": 98.7473, "RA_OF_ASC_NODE": 352.0708, "ARG_OF_PERICENTER": 231.2335, "MEAN_ANOMALY": 128.8785, "EPHEMERIS_TYPE": 0, "CLASSIFICATION_TYPE": "U", "NORAD_CAT_ID": 49008, "ELEMENT_SET_NO": 999, "REV_AT_EPOCH": 23081, "BSTAR": 4.4848022e-05, "MEAN_MOTION_DOT": 5.1e-07, "MEAN_MOTION_DDOT": 0}, "tle": {"line1": "1 49008U 21062A   25351.60709539  .00000051  00000+0  44848-4 0  9994", "line2": "2 49008  98.7473 352.0708 0000633 231.2335 128.8785 14.19880947230811"}}, "geometry": {"type": "Point", "coordinates": [-177.18361722222937, 49.46480723571576]}}, {"type": "Feature", "properties": {"norad_id": 51850, "name": "GOES 18", "group": "weather", "lat": 0.004351641453768228, "lon": -55.63144945661416, "alt_km": 35784.20298785141, "timestamp": "2025-12-17T23:38:06.507533+00:00", "meta": {"OBJECT_NAME": "GOES 18", "OBJECT_ID": "2022-021A", "EPOCH": "2025-12-17T12:15:24.681312", "MEAN_MOTION": 1.00272194, "ECCENTRICITY": 4.602e-05, "INCLINATION": 0.0197, "RA_OF_ASC_NODE": 166.5725, "ARG_OF_PERICENTER": 165.1996, "MEAN_ANOMALY": 161.4683, "EPHEMERIS_TYPE": 0, "CLASSIFICATION_TYPE": "U", "NORAD_CAT_ID": 51850, "ELEMENT_SET_NO": 999, "REV_AT_EPOCH": 477, "BSTAR": 0, "MEAN_MOTION_DOT": 1.21e-06, "MEAN_MOTION_DDOT": 0}, "tle": {"line1": "1 51850U 22021A   25351.51070233  .00000121  00000+0  00000+0 0  9995", "line2": "2 51850   0.0197 166.5725 0000460 165.1996 161.4683  1.00272194  4770"}}, "geometry": {"type": "Point", "coordinates": [-55.63144945661416, 0.004351641453768228]}}]}